{
  "type": "FeatureCollection",
  "features": [
    {
      "type": "Feature",
      "properties": {
        "norad_id": 45344,
        "name": "BEIDOU-3 G2 (C60)",
        "group": "gnss",
        "lat": 0.0010809747784355126,
        "lon": -136.59156310435273,
        "alt_km": 35785.79014664031,
        "timestamp": "2025-12-16T03:53:27.298947+00:00",
        "meta_object_name": "BEIDOU-3 G2 (C60)",
        "meta_object_id": "2020-017A",
        "meta_epoch": "2025-12-15T03:29:42.564192",
        "meta_mean_motion": 1.00273097,
        "meta_eccentricity": 0.00044189,
        "meta_inclination": 2.5021,
        "meta_ra_of_asc_node": 43.9066,
        "meta_arg_of_pericenter": 269.9014,
        "meta_mean_anomaly": 262.7159,
        "meta_ephemeris_type": 0,
        "meta_classification_type": "U",
        "meta_norad_cat_id": 45344,
        "meta_element_set_no": 999,
        "meta_rev_at_epoch": 2141,
        "meta_bstar": 0,
        "meta_mean_motion_dot": -1.22e-06,
        "meta_mean_motion_ddot": 0,
        "tle_line1": "1 45344U 20017A   25349.14563153 -.00000122  00000+0  00000+0 0  9995",
        "tle_line2": "2 45344   2.5021  43.9066 0004418 269.9014 262.7159  1.00273097 21417"
      },
      "geometry": {
        "type": "Point",
        "coordinates": [
          -136.59156310435273,
          0.0010809747784355126
        ]
      }
    },
    {
      "type": "Feature",
      "properties": {
        "norad_id": 45358,
        "name": "COSMOS 2545 (760)",
        "group": "gnss",
        "lat": -34.692810158885806,
        "lon": -60.481927622517404,
        "alt_km": 19125.00633530956,
        "timestamp": "2025-12-16T03:53:27.298967+00:00",
        "meta_object_name": "COSMOS 2545 (760)",
        "meta_object_id": "2020-018A",
        "meta_epoch": "2025-12-14T19:19:41.135808",
        "meta_mean_motion": 2.13102428,
        "meta_eccentricity": 0.00117069,
        "meta_inclination": 64.4681,
        "meta_ra_of_asc_node": 318.8965,
        "meta_arg_of_pericenter": 249.0608,
        "meta_mean_anomaly": 110.81,
        "meta_ephemeris_type": 0,
        "meta_classification_type": "U",
        "meta_norad_cat_id": 45358,
        "meta_element_set_no": 999,
        "meta_rev_at_epoch": 4473,
        "meta_bstar": 0,
        "meta_mean_motion_dot": -6.9e-07,
        "meta_mean_motion_ddot": 0,
        "tle_line1": "1 45358U 20018A   25348.80533722 -.00000069  00000+0  00000+0 0  9992",
        "tle_line2": "2 45358  64.4681 318.8965 0011706 249.0608 110.8100  2.13102428 44732"
      },
      "geometry": {
        "type": "Point",
        "coordinates": [
          -60.481927622517404,
          -34.692810158885806
        ]
      }
    },
    {
      "type": "Feature",
      "properties": {
        "norad_id": 45807,
        "name": "BEIDOU-3 G3 (C61)",
        "group": "gnss",
        "lat": -0.28198407492909566,
        "lon": -106.08476195685961,
        "alt_km": 35798.48043590787,
        "timestamp": "2025-12-16T03:53:27.298985+00:00",
        "meta_object_name": "BEIDOU-3 G3 (C61)",
        "meta_object_id": "2020-040A",
        "meta_epoch": "2025-12-08T17:33:17.532288",
        "meta_mean_motion": 1.00275813,
        "meta_eccentricity": 0.00060306,
        "meta_inclination": 1.9816,
        "meta_ra_of_asc_node": 66.5886,
        "meta_arg_of_pericenter": 306.262,
        "meta_mean_anomaly": 78.7159,
        "meta_ephemeris_type": 0,
        "meta_classification_type": "U",
        "meta_norad_cat_id": 45807,
        "meta_element_set_no": 999,
        "meta_rev_at_epoch": 2016,
        "meta_bstar": 0,
        "meta_mean_motion_dot": -3.52e-06,
        "meta_mean_motion_ddot": 0,
        "tle_line1": "1 45807U 20040A   25342.73145292 -.00000352  00000+0  00000+0 0  9998",
        "tle_line2": "2 45807   1.9816  66.5886 0006030 306.2620  78.7159  1.00275813 20161"
      },
      "geometry": {
        "type": "Point",
        "coordinates": [
          -106.08476195685961,
          -0.28198407492909566
        ]
      }
    },
    {
      "type": "Feature",
      "properties": {
        "norad_id": 45854,
        "name": "GPS BIII-3  (PRN 23)",
        "group": "gnss",
        "lat": -48.47153611861437,
        "lon": -12.161591534342193,
        "alt_km": 20194.128965514956,
        "timestamp": "2025-12-16T03:53:27.299005+00:00",
        "meta_object_name": "GPS BIII-3  (PRN 23)",
        "meta_object_id": "2020-041A",
        "meta_epoch": "2025-12-15T00:47:17.642112",
        "meta_mean_motion": 2.00562009,
        "meta_eccentricity": 0.00605565,
        "meta_inclination": 56.5486,
        "meta_ra_of_asc_node": 36.096,
        "meta_arg_of_pericenter": 203.5023,
        "meta_mean_anomaly": 356.6699,
        "meta_ephemeris_type": 0,
        "meta_classification_type": "U",
        "meta_norad_cat_id": 45854,
        "meta_element_set_no": 999,
        "meta_rev_at_epoch": 4034,
        "meta_bstar": 0,
        "meta_mean_motion_dot": -9.1e-07,
        "meta_mean_motion_ddot": 0,
        "tle_line1": "1 45854U 20041A   25349.03284308 -.00000091  00000+0  00000+0 0  9993",
        "tle_line2": "2 45854  56.5486  36.0960 0060556 203.5023 356.6699  2.00562009 40342"
      },
      "geometry": {
        "type": "Point",
        "coordinates": [
          -12.161591534342193,
          -48.47153611861437
        ]
      }
    },
    {
      "type": "Feature",
      "properties": {
        "norad_id": 46114,
        "name": "GALAXY 30 (WAAS/PRN 135)",
        "group": "gnss",
        "lat": 0.018935812674198808,
        "lon": 18.433113691533467,
        "alt_km": 35789.94924993309,
        "timestamp": "2025-12-16T03:53:27.299026+00:00",
        "meta_object_name": "GALAXY 30 (WAAS/PRN 135)",
        "meta_object_id": "2020-056C",
        "meta_epoch": "2025-12-15T07:35:02.904576",
        "meta_mean_motion": 1.00271437,
        "meta_eccentricity": 0.00020876,
        "meta_inclination": 0.0188,
        "meta_ra_of_asc_node": 359.4433,
        "meta_arg_of_pericenter": 263.343,
        "meta_mean_anomaly": 170.2018,
        "meta_ephemeris_type": 0,
        "meta_classification_type": "U",
        "meta_norad_cat_id": 46114,
        "meta_element_set_no": 999,
        "meta_rev_at_epoch": 1944,
        "meta_bstar": 0,
        "meta_mean_motion_dot": 5.8e-07,
        "meta_mean_motion_ddot": 0,
        "tle_line1": "1 46114U 20056C   25349.31600584  .00000058  00000+0  00000+0 0  9990",
        "tle_line2": "2 46114   0.0188 359.4433 0002087 263.3430 170.2018  1.00271437 19446"
      },
      "geometry": {
        "type": "Point",
        "coordinates": [
          18.433113691533467,
          0.018935812674198808
        ]
      }
    },
    {
      "type": "Feature",
      "properties": {
        "norad_id": 46805,
        "name": "COSMOS 2547 (705K)",
        "group": "gnss",
        "lat": 3.155968866082418,
        "lon": 17.083645170520825,
        "alt_km": 19120.40395758309,
        "timestamp": "2025-12-16T03:53:27.299044+00:00",
        "meta_object_name": "COSMOS 2547 (705K)",
        "meta_object_id": "2020-075A",
        "meta_epoch": "2025-12-14T23:50:33.910656",
        "meta_mean_motion": 2.13100085,
        "meta_eccentricity": 0.0006266,
        "meta_inclination": 64.596,
        "meta_ra_of_asc_node": 198.6212,
        "meta_arg_of_pericenter": 228.8552,
        "meta_mean_anomaly": 131.169,
        "meta_ephemeris_type": 0,
        "meta_classification_type": "U",
        "meta_norad_cat_id": 46805,
        "meta_element_set_no": 999,
        "meta_rev_at_epoch": 3998,
        "meta_bstar": 0,
        "meta_mean_motion_dot": 1.01e-06,
        "meta_mean_motion_ddot": 0,
        "tle_line1": "1 46805U 20075A   25348.99344804  .00000101  00000+0  00000+0 0  9990",
        "tle_line2": "2 46805  64.5960 198.6212 0006266 228.8552 131.1690  2.13100085 39986"
      },
      "geometry": {
        "type": "Point",
        "coordinates": [
          17.083645170520825,
          3.155968866082418
        ]
      }
    },
    {
      "type": "Feature",
      "properties": {
        "norad_id": 46826,
        "name": "GPS BIII-4  (PRN 14)",
        "group": "gnss",
        "lat": -53.92179472638113,
        "lon": 123.50658990759838,
        "alt_km": 20110.67234690684,
        "timestamp": "2025-12-16T03:53:27.299061+00:00",
        "meta_object_name": "GPS BIII-4  (PRN 14)",
        "meta_object_id": "2020-078A",
        "meta_epoch": "2025-12-15T00:45:28.777248",
        "meta_mean_motion": 2.00566873,
        "meta_eccentricity": 0.00647232,
        "meta_inclination": 54.0146,
        "meta_ra_of_asc_node": 218.2479,
        "meta_arg_of_pericenter": 203.3837,
        "meta_mean_anomaly": 326.9194,
        "meta_ephemeris_type": 0,
        "meta_classification_type": "U",
        "meta_norad_cat_id": 46826,
        "meta_element_set_no": 999,
        "meta_rev_at_epoch": 3781,
        "meta_bstar": 0,
        "meta_mean_motion_dot": 5.5e-07,
        "meta_mean_motion_ddot": 0,
        "tle_line1": "1 46826U 20078A   25349.03158307  .00000055  00000+0  00000+0 0  9991",
        "tle_line2": "2 46826  54.0146 218.2479 0064723 203.3837 326.9194  2.00566873 37819"
      },
      "geometry": {
        "type": "Point",
        "coordinates": [
          123.50658990759838,
          -53.92179472638113
        ]
      }
    }
  ]
}